[{"OBJECT_NAME":"KINEIS-5E","OBJECT_ID":"2024-219C","EPOCH":"2026-03-05T04:43:58.169856","MEAN_MOTION":14.72325368,"ECCENTRICITY":0.0002867,"INCLINATION":97.9637,"RA_OF_ASC_NODE":225.916,"ARG_OF_PERICENTER":138.181,"MEAN_ANOMALY":221.9618,"EPHEMERIS_TYPE":0,"CLASSIFICATION_TYPE":"U","NORAD_CAT_ID":62083,"ELEMENT_SET_NO":999,"REV_AT_EPOCH":6846,"BSTAR":0.00025798352,"MEAN_MOTION_DOT":1.583e-5,"MEAN_MOTION_DDOT":0},{"OBJECT_NAME":"KINEIS-5A","OBJECT_ID":"2024-219D","EPOCH":"2026-03-05T07:07:25.883904","MEAN_MOTION":14.72174003,"ECCENTRICITY":0.00015447,"INCLINATION":97.9776,"RA_OF_ASC_NODE":226.1127,"ARG_OF_PERICENTER":219.4758,"MEAN_ANOMALY":140.6337,"EPHEMERIS_TYPE":0,"CLASSIFICATION_TYPE":"U","NORAD_CAT_ID":62084,"ELEMENT_SET_NO":999,"REV_AT_EPOCH":6848,"BSTAR":0.00018055483,"MEAN_MOTION_DOT":1.089e-5,"MEAN_MOTION_DDOT":0},{"OBJECT_NAME":"KINEIS-5B","OBJECT_ID":"2024-219E","EPOCH":"2026-03-05T06:40:28.124256","MEAN_MOTION":14.78051713,"ECCENTRICITY":0.00012084,"INCLINATION":97.9935,"RA_OF_ASC_NODE":228.7951,"ARG_OF_PERICENTER":207.8374,"MEAN_ANOMALY":152.2772,"EPHEMERIS_TYPE":0,"CLASSIFICATION_TYPE":"U","NORAD_CAT_ID":62085,"ELEMENT_SET_NO":999,"REV_AT_EPOCH":6865,"BSTAR":0.00033481215,"MEAN_MOTION_DOT":2.367e-5,"MEAN_MOTION_DDOT":0},{"OBJECT_NAME":"KINEIS-2C","OBJECT_ID":"2025-028B","EPOCH":"2026-03-05T02:32:21.202944","MEAN_MOTION":14.72300312,"ECCENTRICITY":0.00012736,"INCLINATION":98.0282,"RA_OF_ASC_NODE":119.3297,"ARG_OF_PERICENTER":40.3568,"MEAN_ANOMALY":319.7734,"EPHEMERIS_TYPE":0,"CLASSIFICATION_TYPE":"U","NORAD_CAT_ID":62929,"ELEMENT_SET_NO":999,"REV_AT_EPOCH":5729,"BSTAR":0.00026127807,"MEAN_MOTION_DOT":1.602e-5,"MEAN_MOTION_DDOT":0},{"OBJECT_NAME":"KINEIS-2D","OBJECT_ID":"2025-028C","EPOCH":"2026-03-05T03:51:49.048704","MEAN_MOTION":14.75321974,"ECCENTRICITY":0.00038012,"INCLINATION":97.9416,"RA_OF_ASC_NODE":118.5742,"ARG_OF_PERICENTER":157.5713,"MEAN_ANOMALY":202.5663,"EPHEMERIS_TYPE":0,"CLASSIFICATION_TYPE":"U","NORAD_CAT_ID":62930,"ELEMENT_SET_NO":999,"REV_AT_EPOCH":5737,"BSTAR":0.00034757271,"MEAN_MOTION_DOT":2.306e-5,"MEAN_MOTION_DDOT":0},{"OBJECT_NAME":"KINEIS-2E","OBJECT_ID":"2025-028D","EPOCH":"2026-03-05T03:46:49.224288","MEAN_MOTION":14.76697457,"ECCENTRICITY":0.00018507,"INCLINATION":97.909,"RA_OF_ASC_NODE":117.9654,"ARG_OF_PERICENTER":114.4643,"MEAN_ANOMALY":245.676,"EPHEMERIS_TYPE":0,"CLASSIFICATION_TYPE":"U","NORAD_CAT_ID":62931,"ELEMENT_SET_NO":999,"REV_AT_EPOCH":5742,"BSTAR":0.00027414336,"MEAN_MOTION_DOT":1.868e-5,"MEAN_MOTION_DDOT":0},{"OBJECT_NAME":"KINEIS-2A","OBJECT_ID":"2025-028E","EPOCH":"2026-03-05T03:12:20.799648","MEAN_MOTION":14.72085371,"ECCENTRICITY":0.00034271,"INCLINATION":98.0719,"RA_OF_ASC_NODE":119.6706,"ARG_OF_PERICENTER":207.4651,"MEAN_ANOMALY":152.6375,"EPHEMERIS_TYPE":0,"CLASSIFICATION_TYPE":"U","NORAD_CAT_ID":62932,"ELEMENT_SET_NO":999,"REV_AT_EPOCH":5729,"BSTAR":0.00024240263,"MEAN_MOTION_DOT":1.474e-5,"MEAN_MOTION_DDOT":0},{"OBJECT_NAME":"KINEIS-2B","OBJECT_ID":"2025-028G","EPOCH":"2026-03-05T03:46:32.388384","MEAN_MOTION":14.7309881,"ECCENTRICITY":0.00048504,"INCLINATION":97.9801,"RA_OF_ASC_NODE":118.8655,"ARG_OF_PERICENTER":119.266,"MEAN_ANOMALY":240.9033,"EPHEMERIS_TYPE":0,"CLASSIFICATION_TYPE":"U","NORAD_CAT_ID":62934,"ELEMENT_SET_NO":999,"REV_AT_EPOCH":5734,"BSTAR":0.00026945298,"MEAN_MOTION_DOT":1.685e-5,"MEAN_MOTION_DDOT":0},{"OBJECT_NAME":"KINEIS-4E","OBJECT_ID":"2025-056A","EPOCH":"2026-03-05T08:05:05.208576","MEAN_MOTION":14.72340748,"ECCENTRICITY":6.853e-5,"INCLINATION":97.9937,"RA_OF_ASC_NODE":190.7164,"ARG_OF_PERICENTER":188.2206,"MEAN_ANOMALY":171.899,"EPHEMERIS_TYPE":0,"CLASSIFICATION_TYPE":"U","NORAD_CAT_ID":63300,"ELEMENT_SET_NO":999,"REV_AT_EPOCH":5184,"BSTAR":0.00053974775,"MEAN_MOTION_DOT":3.366e-5,"MEAN_MOTION_DDOT":0},{"OBJECT_NAME":"KINEIS-4C","OBJECT_ID":"2025-056B","EPOCH":"2026-03-04T20:57:55.454400","MEAN_MOTION":14.72378333,"ECCENTRICITY":6.399e-5,"INCLINATION":97.9994,"RA_OF_ASC_NODE":190.4249,"ARG_OF_PERICENTER":46.7738,"MEAN_ANOMALY":313.3523,"EPHEMERIS_TYPE":0,"CLASSIFICATION_TYPE":"U","NORAD_CAT_ID":63301,"ELEMENT_SET_NO":999,"REV_AT_EPOCH":5178,"BSTAR":0.00049970766,"MEAN_MOTION_DOT":3.115e-5,"MEAN_MOTION_DDOT":0},{"OBJECT_NAME":"KINEIS-4D","OBJECT_ID":"2025-056C","EPOCH":"2026-03-04T21:05:10.864608","MEAN_MOTION":14.72350255,"ECCENTRICITY":4.719e-5,"INCLINATION":97.9976,"RA_OF_ASC_NODE":190.4081,"ARG_OF_PERICENTER":318.1531,"MEAN_ANOMALY":41.964,"EPHEMERIS_TYPE":0,"CLASSIFICATION_TYPE":"U","NORAD_CAT_ID":63302,"ELEMENT_SET_NO":999,"REV_AT_EPOCH":5178,"BSTAR":0.00056560844,"MEAN_MOTION_DOT":3.53e-5,"MEAN_MOTION_DDOT":0},{"OBJECT_NAME":"KINEIS-4A","OBJECT_ID":"2025-056D","EPOCH":"2026-03-05T07:40:08.720832","MEAN_MOTION":14.7229261,"ECCENTRICITY":0.00016757,"INCLINATION":97.9934,"RA_OF_ASC_NODE":190.7682,"ARG_OF_PERICENTER":261.8137,"MEAN_ANOMALY":98.288,"EPHEMERIS_TYPE":0,"CLASSIFICATION_TYPE":"U","NORAD_CAT_ID":63303,"ELEMENT_SET_NO":999,"REV_AT_EPOCH":5184,"BSTAR":-0.00014493158,"MEAN_MOTION_DOT":-9.65e-6,"MEAN_MOTION_DDOT":0},{"OBJECT_NAME":"KINEIS-4B","OBJECT_ID":"2025-056E","EPOCH":"2026-03-05T07:15:46.270368","MEAN_MOTION":14.72280375,"ECCENTRICITY":0.00022172,"INCLINATION":97.9936,"RA_OF_ASC_NODE":190.7968,"ARG_OF_PERICENTER":203.9274,"MEAN_ANOMALY":156.1831,"EPHEMERIS_TYPE":0,"CLASSIFICATION_TYPE":"U","NORAD_CAT_ID":63304,"ELEMENT_SET_NO":999,"REV_AT_EPOCH":5183,"BSTAR":0.00033576377,"MEAN_MOTION_DOT":2.072e-5,"MEAN_MOTION_DDOT":0}]
