KINEIS-5E               
1 62083U 24219C   26064.19720104  .00001583  00000+0  25798-3 0  9999
2 62083  97.9637 225.9160 0002867 138.1810 221.9618 14.72325368 68466
KINEIS-5A               
1 62084U 24219D   26064.29682736  .00001089  00000+0  18055-3 0  9998
2 62084  97.9776 226.1127 0001544 219.4758 140.6337 14.72174003 68487
KINEIS-5B               
1 62085U 24219E   26064.27810329  .00002367  00000+0  33481-3 0  9998
2 62085  97.9935 228.7951 0001208 207.8374 152.2772 14.78051713 68659
KINEIS-2C               
1 62929U 25028B   26064.10580096  .00001602  00000+0  26128-3 0  9992
2 62929  98.0282 119.3297 0001273  40.3568 319.7734 14.72300312 57290
KINEIS-2D               
1 62930U 25028C   26064.16098436  .00002306  00000+0  34757-3 0  9991
2 62930  97.9416 118.5742 0003801 157.5713 202.5663 14.75321974 57376
KINEIS-2E               
1 62931U 25028D   26064.15751417  .00001868  00000+0  27414-3 0  9990
2 62931  97.9090 117.9654 0001850 114.4643 245.6760 14.76697457 57421
KINEIS-2A               
1 62932U 25028E   26064.13357407  .00001474  00000+0  24240-3 0  9997
2 62932  98.0719 119.6706 0003427 207.4651 152.6375 14.72085371 57299
KINEIS-2B               
1 62934U 25028G   26064.15731931  .00001685  00000+0  26945-3 0  9997
2 62934  97.9801 118.8655 0004850 119.2660 240.9033 14.73098810 57347
KINEIS-4E               
1 63300U 25056A   26064.33686584  .00003366  00000+0  53975-3 0  9990
2 63300  97.9937 190.7164 0000685 188.2206 171.8990 14.72340748 51845
KINEIS-4C               
1 63301U 25056B   26063.87355850  .00003115  00000+0  49971-3 0  9991
2 63301  97.9994 190.4249 0000639  46.7738 313.3523 14.72378333 51786
KINEIS-4D               
1 63302U 25056C   26063.87859797  .00003530  00000+0  56561-3 0  9995
2 63302  97.9976 190.4081 0000471 318.1531  41.9640 14.72350255 51789
KINEIS-4A               
1 63303U 25056D   26064.31954538 -.00000965  00000+0 -14493-3 0  9994
2 63303  97.9934 190.7682 0001675 261.8137  98.2880 14.72292610 51845
KINEIS-4B               
1 63304U 25056E   26064.30261887  .00002072  00000+0  33576-3 0  9994
2 63304  97.9936 190.7968 0002217 203.9274 156.1831 14.72280375 51831
